[{"OBJECT_NAME":"STARLINK-30494","OBJECT_ID":"2023-151G","EPOCH":"2026-03-09T08:39:06.366240","MEAN_MOTION":15.28417441,"ECCENTRICITY":0.00011553,"INCLINATION":43.0027,"RA_OF_ASC_NODE":192.4566,"ARG_OF_PERICENTER":241.5536,"MEAN_ANOMALY":118.52,"EPHEMERIS_TYPE":0,"CLASSIFICATION_TYPE":"U","NORAD_CAT_ID":57970,"ELEMENT_SET_NO":999,"REV_AT_EPOCH":13740,"BSTAR":-3.569111e-5,"MEAN_MOTION_DOT":-1.272e-5,"MEAN_MOTION_DDOT":0},{"OBJECT_NAME":"STARLINK-35931","OBJECT_ID":"2025-265D","EPOCH":"2026-03-09T22:59:56.213664","MEAN_MOTION":15.27591459,"ECCENTRICITY":0.00013912,"INCLINATION":42.9996,"RA_OF_ASC_NODE":276.4938,"ARG_OF_PERICENTER":249.1203,"MEAN_ANOMALY":110.95,"EPHEMERIS_TYPE":0,"CLASSIFICATION_TYPE":"U","NORAD_CAT_ID":66519,"ELEMENT_SET_NO":999,"REV_AT_EPOCH":1715,"BSTAR":0.00084454216,"MEAN_MOTION_DOT":0.00023059,"MEAN_MOTION_DDOT":0}]
